TDRS 3                  
1 19548U 88091B   26157.90802608 -.00000291  00000+0  00000+0 0  9998
2 19548  12.6101 341.0675 0038487 356.5232 195.6884  1.00277839125288
FLTSATCOM 8 (USA 46)    
1 20253U 89077A   26157.94262359 -.00000359  00000+0  00000+0 0  9990
2 20253  12.4245 351.2288 0004671  48.3597 320.5094  1.00282788260462
SKYNET 4C               
1 20776U 90079A   26158.20950999  .00000134  00000+0  00000+0 0  9998
2 20776  13.3435 349.8796 0002702  92.0619 282.4561  1.00272822130799
TDRS 5                  
1 21639U 91054B   26158.24096939  .00000092  00000+0  00000+0 0  9993
2 21639  14.0725 353.8508 0006022 276.6895 264.1723  1.00271065127611
TDRS 6                  
1 22314U 93003B   26158.23589309 -.00000287  00000+0  00000+0 0  9994
2 22314  14.1828 357.1356 0007340 179.0203 118.5720  1.00275019122301
UFO 2 (USA 95)          
1 22787U 93056A   26158.20864332  .00000134  00000+0  00000+0 0  9995
2 22787  11.8917   3.6131 0006433   5.0971 350.6285  1.00271957118446
USA 99 (MILSTAR-1 1)    
1 22988U 94009A   26158.21497002  .00000035  00000+0  00000+0 0  9994
2 22988  17.6114  27.8086 0000765 204.7954 161.0833  0.98720373 32850
UFO 4 (USA 108)         
1 23467U 95003A   26157.80939812 -.00000013  00000+0  00000+0 0  9993
2 23467   9.7071  13.2692 0003030  54.1184 291.3995  1.00270940114849
TDRS 7                  
1 23613U 95035B   26158.00670429 -.00000230  00000+0  00000+0 0  9991
2 23613  13.3814 348.2631 0011075  75.3819 283.2628  1.00267138113140
USA 115 (MILSTAR-1 2)   
1 23712U 95060A   26158.04118241 -.00000164  00000+0  00000+0 0  9998
2 23712  14.0692   3.8225 0001681 127.6767  41.1661  1.00366416 32787
INMARSAT 3-F1           
1 23839U 96020A   26158.18447527 -.00000169  00000+0  00000+0 0  9997
2 23839  10.5814  46.7280 0003583  35.8010 154.8394  0.99980455110150
INMARSAT 3-F2           
1 24307U 96053A   26157.60070178 -.00000165  00000+0  00000+0 0  9990
2 24307   9.8344  54.0456 0006701  20.5019 196.3084  1.00004508108818
INMARSAT 3-F3           
1 24674U 96070A   26157.79540867  .00000123  00000+0  00000+0 0  9996
2 24674  10.2969  49.7540 0003537  15.3014 169.9309  0.99977986107800
AMC-3                   
1 24936U 97050A   26156.46923512 -.00000232  00000+0  00000+0 0  9993
2 24936   8.1165  64.2198 0010464 111.2215 173.9176  1.00107765 52317
USA 134                 
1 25019U 97065A   26158.23808757 -.00000054  00000+0  00000+0 0  9994
2 25019  12.7720  21.7953 0003603 341.2274 226.1479  1.00271015 32856
INMARSAT 3-F5           
1 25153U 98006B   26158.12099025 -.00000279  00000+0  00000+0 0  9996
2 25153   9.6702  53.3584 0004786  19.2363 172.5362  1.00272285103792
ABS-6                   
1 25924U 99053A   26158.23446935  .00000000  00000+0  00000+0 0  9994
2 25924   0.0300  47.5972 0003145  45.0915  46.3554  1.00267850 97741
UFO 10 (USA 146)        
1 25967U 99063A   26153.99200895 -.00000181  00000+0  00000+0 0  9994
2 25967   9.8534  27.2872 0001940  17.6670 180.6760  1.00273735 97203
ASIASTAR                
1 26107U 00016A   26157.15413917 -.00000322  00000+0  00000+0 0  9991
2 26107   9.1040  58.2729 0004940  20.9172 335.8599  1.00268520 95801
USA 149 (DSP 20)        
1 26356U 00024A   26157.30645690  .00000102  00000+0  00000+0 0  9993
2 26356  13.1622  11.9284 0001574 318.2644 229.4582  1.00271133 32802
TDRS 8                  
1 26388U 00034A   26158.09296038 -.00000184  00000+0  00000+0 0  9995
2 26388  12.6684  31.4097 0004931  11.0580 331.2493  1.00269068 95070
NSS-11                  
1 26554U 00059A   26158.23784938  .00000039  00000+0  00000+0 0  9992
2 26554   2.1000  81.5079 0003116 356.9203  78.8365  1.00272372 41192
USA 153                 
1 26575U 00065A   26157.51671339 -.00000314  00000+0  00000+0 0  9999
2 26575  11.6064  35.5098 0003186  44.5936 135.3597  1.00272415 32824
AMC-6                   
1 26580U 00067A   26158.26119442  .00000103  00000+0  00000+0 0  9997
2 26580   0.1260  82.9398 0003698   1.8498 129.8707  1.00271060 93796
USA 157 (MILSTAR-2 2)   
1 26715U 01009A   26158.28710660  .00000119  00000+0  00000+0 0  9992
2 26715  11.5314  19.8236 0039048 177.0167  12.1368  1.00271100 32840
USA 159 (DSP 21)        
1 26880U 01033A   26157.97878773 -.00000228  00000+0  00000+0 0  9999
2 26880  12.7721  16.5106 0001497 121.0068  58.6550  0.99200565 32857
INTELSAT 902 (IS-902)   
1 26900U 01039A   26158.19304324 -.00000270  00000+0  00000+0 0  9996
2 26900   6.0933  71.9037 0004296   1.6561 201.4206  1.00270646 90591
USA 164 (MILSTAR-2 3)   
1 27168U 02001A   26157.85016345  .00000107  00000+0  00000+0 0  9996
2 27168  11.1669  21.9681 0099345   8.2535 190.0290  1.00274186 32858
INTELSAT 904 (IS-904)   
1 27380U 02007A   26157.62641043 -.00000213  00000+0  00000+0 0  9991
2 27380   6.8931  69.3106 0007136   0.5431  19.1983  1.00270083 51664
DIRECTV 5 (TEMPO 1)     
1 27426U 02023A   26158.25248485 -.00000043  00000+0  00000+0 0  9994
2 27426   4.8516  75.4335 0003415   9.6347 151.3837  1.00271713 88024
INTELSAT 905 (IS-905)   
1 27438U 02027A   26158.26911551  .00000107  00000+0  00000+0 0  9993
2 27438   6.7279  69.9191 0004104  14.8881 130.5427  1.00272986 51262
